NORAD_CAT_ID,OBJECT_NAME,OBJECT_TYPE,EPOCH,MEAN_MOTION,ECCENTRICITY,INCLINATION,RA_OF_ASC_NODE,ARG_OF_PERICENTER,MEAN_ANOMALY,BSTAR,MEAN_MOTION_DOT,MEAN_MOTION_DDOT,TLE_LINE0,TLE_LINE1,TLE_LINE2,SEMIMAJOR_AXIS,PERIOD,APOGEE,PERIGEE,DECAYED
51862.0,STARLINK-3508,PAYLOAD,2024-05-05 09:28:03,15.08837595,0.0001376,53.216,151.6561,83.1766,276.9383,-2.4319e-05,-6.75e-06,0.0,0 STARLINK-3508,1 51862U 22022L   24126.39448808 -.00000675  00000-0 -24319-4 0  9992,2 51862  53.2160 151.6561 0001376  83.1766 276.9383 15.08837595121524,6917.888,95.438,540.705,538.801,0.0
51862.0,STARLINK-3508,PAYLOAD,2024-05-05 19:00:22,15.08842053,0.0001198,53.2159,149.8728,91.7114,268.4015,-4.1401e-06,-3.54e-06,0.0,0 STARLINK-3508,1 51862U 22022L   24126.79192387 -.00000354  00000-0 -41401-5 0  9990,2 51862  53.2159 149.8728 0001198  91.7114 268.4015 15.08842053121589,6917.874,95.437,540.568,538.91,0.0
51862.0,STARLINK-3508,PAYLOAD,2024-05-06 07:43:27,15.08838367,0.00013,53.2156,147.4936,80.0075,280.1064,0.00013715,1.895e-05,0.0,0 STARLINK-3508,1 51862U 22022L   24127.32184125  .00001895  00000-0  13715-3 0  9995,2 51862  53.2156 147.4936 0001300  80.0075 280.1064 15.08838367121660,6917.885,95.438,540.65,538.851,0.0
51862.0,STARLINK-3508,PAYLOAD,2024-05-06 18:51:08,15.08845492,0.0001352,53.2157,145.4123,78.6969,281.4175,0.00012481,1.699e-05,0.0,0 STARLINK-3508,1 51862U 22022L   24127.78551611  .00001699  00000-0  12481-3 0  9994,2 51862  53.2157 145.4123 0001352  78.6969 281.4175 15.08845492121731,6917.864,95.437,540.664,538.793,0.0
51862.0,STARLINK-3508,PAYLOAD,2024-05-07 10:45:00,15.08839616,0.0001434,53.2165,142.4375,86.8692,273.2464,2.7962e-07,-2.84e-06,0.0,0 STARLINK-3508,1 51862U 22022L   24128.44792305 -.00000284  00000-0  27962-6 0  9998,2 51862  53.2165 142.4375 0001434  86.8692 273.2464 15.08839616121833,6917.882,95.438,540.739,538.755,0.0
51862.0,STARLINK-3508,PAYLOAD,2024-05-08 10:35:47,15.08842577,0.0001482,53.2169,137.9781,88.2422,271.8739,-5.0963e-05,-1.099e-05,0.0,0 STARLINK-3508,1 51862U 22022L   24129.44152041 -.00001099  00000-0 -50963-4 0  9997,2 51862  53.2169 137.9781 0001482  88.2422 271.8739 15.08842577121982,6917.873,95.437,540.763,538.712,0.0
51862.0,STARLINK-3508,PAYLOAD,2024-05-09 05:40:25,15.08835016,0.0001308,53.2161,134.4089,84.4168,275.6973,-1.7067e-05,-5.59e-06,0.0,0 STARLINK-3508,1 51862U 22022L   24130.23640262 -.00000559  00000-0 -17067-4 0  9991,2 51862  53.2161 134.4089 0001308  84.4168 275.6973 15.08835016122106,6917.896,95.438,540.665,538.856,0.0
51862.0,STARLINK-3508,PAYLOAD,2024-05-09 07:15:48,15.08835471,0.0001304,53.2161,134.1114,84.3853,275.7287,-1.234e-05,-4.84e-06,0.0,0 STARLINK-3508,1 51862U 22022L   24130.30264227 -.00000484  00000-0 -12340-4 0  9998,2 51862  53.2161 134.1114 0001304  84.3853 275.7287 15.08835471122113,6917.894,95.438,540.661,538.857,0.0
51862.0,STARLINK-3508,PAYLOAD,2024-05-09 23:09:39,15.08834175,0.0001441,53.2174,131.141,95.2756,264.8401,-1.6667e-05,-5.53e-06,0.0,0 STARLINK-3508,1 51862U 22022L   24130.96504413 -.00000553  00000-0 -16667-4 0  9997,2 51862  53.2174 131.1410 0001441  95.2756 264.8401 15.08834175122216,6917.898,95.438,540.76,538.766,0.0
51862.0,STARLINK-3508,PAYLOAD,2024-05-10 10:17:22,15.08823151,0.0001407,53.2178,129.0582,99.0458,261.0693,1.7163e-05,-1.5e-07,0.0,0 STARLINK-3508,1 51862U 22022L   24131.42873260 -.00000015  00000-0  17163-4 0  9992,2 51862  53.2178 129.0582 0001407  99.0458 261.0693 15.08823151122280,6917.932,95.439,540.77,538.824,0.0
51862.0,STARLINK-3508,PAYLOAD,2024-05-10 16:38:54,15.08832515,0.0001503,53.2182,127.8689,92.4831,267.6333,-3.0984e-05,-7.81e-06,0.0,0 STARLINK-3508,1 51862U 22022L   24131.69369005 -.00000781  00000-0 -30984-4 0  9995,2 51862  53.2182 127.8689 0001503  92.4831 267.6333 15.08832515122320,6917.903,95.438,540.808,538.729,0.0
51862.0,STARLINK-3508,PAYLOAD,2024-05-11 05:21:59,15.08840836,0.0001527,53.2156,125.4878,85.032,275.0847,5.0866e-05,5.22e-06,0.0,0 STARLINK-3508,1 51862U 22022L   24132.22360352  .00000522  00000-0  50866-4 0  9993,2 51862  53.2156 125.4878 0001527  85.0320 275.0847 15.08840836122409,6917.878,95.438,540.799,538.686,0.0
51862.0,STARLINK-3508,PAYLOAD,2024-05-11 08:32:44,15.08858571,0.0001542,53.2182,124.8952,104.6665,255.4498,0.00019819,2.869e-05,0.0,0 STARLINK-3508,1 51862U 22022L   24132.35606617  .00002869  00000-0  19819-3 0  9992,2 51862  53.2182 124.8952 0001542 104.6665 255.4498 15.08858571122422,6917.824,95.436,540.755,538.622,0.0
51862.0,STARLINK-3508,PAYLOAD,2024-05-11 16:29:38,15.08874276,0.0001759,53.2169,123.4095,72.9175,287.2009,0.00030671,4.601e-05,0.0,0 STARLINK-3508,1 51862U 22022L   24132.68724862  .00004601  00000-0  30671-3 0  9996,2 51862  53.2169 123.4095 0001759  72.9175 287.2009 15.08874276122479,6917.776,95.435,540.857,538.424,0.0
51862.0,STARLINK-3508,PAYLOAD,2024-05-11 22:51:14,15.088179,0.0001827,53.2171,122.2176,78.6435,281.4762,-7.0479e-05,-1.409e-05,0.0,0 STARLINK-3508,1 51862U 22022L   24132.95225516 -.00001409  00000-0 -70479-4 0  9994,2 51862  53.2171 122.2176 0001827  78.6435 281.4762 15.08817900122515,6917.948,95.439,541.077,538.549,0.0
51862.0,STARLINK-3508,PAYLOAD,2024-05-12 05:12:48,15.0881433,0.0001481,53.2173,121.0279,77.6829,282.4329,-0.00013275,-2.399e-05,0.0,0 STARLINK-3508,1 51862U 22022L   24133.21722223 -.00002399  00000-0 -13275-3 0  9990,2 51862  53.2173 121.0279 0001481  77.6829 282.4329 15.08814330122558,6917.959,95.439,540.848,538.799,0.0
51862.0,STARLINK-3508,PAYLOAD,2024-05-12 08:23:34,15.08816053,0.0001482,53.2171,120.433,76.1677,283.948,-0.00011852,-2.172e-05,0.0,0 STARLINK-3508,1 51862U 22022L   24133.34970220 -.00002172  00000-0 -11852-3 0  9994,2 51862  53.2171 120.4330 0001482  76.1677 283.9480 15.08816053122573,6917.954,95.439,540.844,538.793,0.0
51862.0,STARLINK-3508,PAYLOAD,2024-05-12 16:20:29,15.0882022,0.0001456,53.2172,118.9468,77.998,282.1175,-9.9493e-05,-1.87e-05,0.0,0 STARLINK-3508,1 51862U 22022L   24133.68090244 -.00001870  00000-0 -99493-4 0  9992,2 51862  53.2172 118.9468 0001456  77.9980 282.1175 15.08820220122624,6917.941,95.439,540.813,538.799,0.0
51862.0,STARLINK-3508,PAYLOAD,2024-05-12 22:42:02,15.08823093,0.0001696,53.2171,117.7567,77.2849,282.8333,-0.00011308,-2.086e-05,0.0,0 STARLINK-3508,1 51862U 22022L   24133.94586445 -.00002086  00000-0 -11308-3 0  9992,2 51862  53.2171 117.7567 0001696  77.2849 282.8333 15.08823093122661,6917.932,95.439,540.97,538.624,0.0
51862.0,STARLINK-3508,PAYLOAD,2024-05-13 05:03:35,15.08838167,0.0001348,53.2164,116.5677,89.3163,270.7984,-0.00025121,-4.283e-05,0.0,0 STARLINK-3508,1 51862U 22022L   24134.21082190 -.00004283  00000-0 -25121-3 0  9990,2 51862  53.2164 116.5677 0001348  89.3163 270.7984 15.08838167122700,6917.886,95.438,540.684,538.818,0.0
51862.0,STARLINK-3508,PAYLOAD,2024-05-13 06:38:58,15.08838736,0.0001333,53.2166,116.2704,91.8382,268.2763,-0.00024735,-4.222e-05,0.0,0 STARLINK-3508,1 51862U 22022L   24134.27706135 -.00004222  00000-0 -24735-3 0  9991,2 51862  53.2166 116.2704 0001333  91.8382 268.2763 15.08838736122715,6917.884,95.438,540.671,538.827,0.0
51862.0,STARLINK-3508,PAYLOAD,2024-05-13 16:11:16,15.08841469,0.0001387,53.2168,114.4863,85.4929,274.6222,-0.00021006,-3.63e-05,0.0,0 STARLINK-3508,1 51862U 22022L   24134.67449903 -.00003630  00000-0 -21006-3 0  9992,2 51862  53.2168 114.4863 0001387  85.4929 274.6222 15.08841469122772,6917.876,95.437,540.7,538.781,0.0
51862.0,STARLINK-3508,PAYLOAD,2024-05-14 04:54:21,15.08824263,0.0001492,53.2167,112.1061,73.3015,286.814,0.00014886,2.081e-05,0.0,0 STARLINK-3508,1 51862U 22022L   24135.20442011  .00002081  00000-0  14886-3 0  9990,2 51862  53.2167 112.1061 0001492  73.3015 286.8140 15.08824263122851,6917.928,95.439,540.826,538.761,0.0
51862.0,STARLINK-3508,PAYLOAD,2024-05-14 16:02:03,15.08833815,0.0001547,53.2171,110.0255,71.9748,288.1413,0.00018373,2.637e-05,0.0,0 STARLINK-3508,1 51862U 22022L   24135.66809626  .00002637  00000-0  18373-3 0  9991,2 51862  53.2171 110.0255 0001547  71.9748 288.1413 15.08833815122925,6917.899,95.438,540.834,538.694,0.0
51862.0,STARLINK-3508,PAYLOAD,2024-05-14 22:23:36,15.08835866,0.0001555,53.2171,108.8359,73.0562,287.0601,0.00014498,2.02e-05,0.0,0 STARLINK-3508,1 51862U 22022L   24135.93305733  .00002020  00000-0  14498-3 0  9991,2 51862  53.2171 108.8359 0001555  73.0562 287.0601 15.08835866122960,6917.893,95.438,540.834,538.682,0.0
51862.0,STARLINK-3508,PAYLOAD,2024-05-15 04:45:08,15.08844228,0.0001556,53.2173,107.6457,77.7704,282.3462,0.00018916,2.724e-05,0.0,0 STARLINK-3508,1 51862U 22022L   24136.19801023  .00002724  00000-0  18916-3 0  9993,2 51862  53.2173 107.6457 0001556  77.7704 282.3462 15.08844228123009,6917.867,95.437,540.809,538.656,0.0
51862.0,STARLINK-3508,PAYLOAD,2024-05-15 22:14:22,15.0884924,0.000165,53.218,104.3743,82.1476,277.9703,6.1236e-05,6.87e-06,0.0,0 STARLINK-3508,1 51862U 22022L   24136.92664876  .00000687  00000-0  61236-4 0  9997,2 51862  53.2180 104.3743 0001650  82.1476 277.9703 15.08849240123119,6917.852,95.437,540.859,538.576,0.0
51862.0,STARLINK-3508,PAYLOAD,2024-05-16 04:35:55,15.08827907,0.0001673,53.2173,103.1829,88.7196,271.3988,0.00023431,3.442e-05,0.0,0 STARLINK-3508,1 51862U 22022L   24137.19161327  .00003442  00000-0  23431-3 0  9996,2 51862  53.2173 103.1829 0001673  88.7196 271.3988 15.08827907123152,6917.917,95.438,540.94,538.625,0.0
51862.0,STARLINK-3508,PAYLOAD,2024-05-16 14:08:13,15.08853411,0.0001582,53.2185,101.3978,84.8398,275.2775,9.7814e-05,1.27e-05,0.0,0 STARLINK-3508,1 51862U 22022L   24137.58903975  .00001270  00000-0  97814-4 0  9996,2 51862  53.2185 101.3978 0001582  84.8398 275.2775 15.08853411123213,6917.839,95.437,540.799,538.61,0.0
51862.0,STARLINK-3508,PAYLOAD,2024-05-16 22:05:10,15.08834932,0.0001407,53.218,99.9147,86.2691,273.8462,-0.00017067,-3.003e-05,0.0,0 STARLINK-3508,1 51862U 22022L   24137.92025894 -.00003003  00000-0 -17067-3 0  9998,2 51862  53.2180  99.9147 0001407  86.2691 273.8462 15.08834932123265,6917.896,95.438,540.734,538.788,0.0
